IRIDIUM 135             
1 43070U 17083A   26169.96554681 -.00000017  00000+0 -13136-4 0  9998
2 43070  86.3962 321.2718 0002073  91.8384 268.3049 14.34217203444404
IRIDIUM 138             
1 43071U 17083B   26169.92114747  .00000083  00000+0  22453-4 0  9993
2 43071  86.3980 320.9859 0002308  86.9843 273.1617 14.34217862444386
IRIDIUM 116             
1 43072U 17083C   26169.81966598 -.00000010  00000+0 -10517-4 0  9991
2 43072  86.3960 321.3187 0001897 100.0470 260.0941 14.34217458444409
IRIDIUM 130             
1 43073U 17083D   26169.92748582  .00000161  00000+0  50561-4 0  9993
2 43073  86.3974 321.5489 0001944  93.3023 266.8395 14.34219446444364
IRIDIUM 151             
1 43074U 17083E   26169.90212071 -.00000006  00000+0 -90412-5 0  9991
2 43074  86.3962 321.3421 0002054  93.4738 266.6693 14.34217304444385
IRIDIUM 134             
1 43075U 17083F   26169.94017618 -.00000032  00000+0 -18361-4 0  9997
2 43075  86.3964 321.3342 0002008  92.3530 267.7896 14.34217103444358
IRIDIUM 137             
1 43076U 17083G   26169.88309228  .00000001  00000+0 -67799-5 0  9997
2 43076  86.3966 321.4510 0002210 104.2507 255.8935 14.34217535444419
IRIDIUM 141             
1 43077U 17083H   26169.38836970  .00000021  00000+0  52348-6 0  9998
2 43077  86.3964 321.4880 0002229  90.9844 269.1607 14.34217760444349
IRIDIUM 153             
1 43078U 17083J   26169.75916030  .00000038  00000+0  64022-5 0  9995
2 43078  86.3962 289.8134 0002234  89.7662 270.3790 14.34217690445505
IRIDIUM 131             
1 43079U 17083K   26169.93383207  .00000086  00000+0  23799-4 0  9998
2 43079  86.3971 321.4461 0002210  92.0291 268.1158 14.34217448444357
IRIDIUM 144             
1 43249U 18030A   26169.76550246  .00000163  00000+0  51201-4 0  9995
2 43249  86.3961 289.7397 0002116  97.4966 262.6470 14.34217439430364
IRIDIUM 149             
1 43250U 18030B   26169.77184559  .00000065  00000+0  16264-4 0  9999
2 43250  86.3959 289.7042 0002266  93.7824 266.3631 14.34217778430386
IRIDIUM 157             
1 43251U 18030C   26169.79087350 -.00000005  00000+0 -88970-5 0  9993
2 43251  86.3957 289.7497 0002098  94.4569 265.6867 14.34217332430363
IRIDIUM 140             
1 43252U 18030D   26169.74013276  .00000031  00000+0  38760-5 0  9994
2 43252  86.3959 289.7832 0002140  94.0293 266.1148 14.34217499430415
IRIDIUM 145             
1 43253U 18030E   26169.72744730  .00000034  00000+0  50743-5 0  9997
2 43253  86.3960 289.7607 0002032 101.7442 258.3982 14.34217457430345
IRIDIUM 146             
1 43254U 18030F   26169.70841587  .00000156  00000+0  48463-4 0  9994
2 43254  86.3960 289.7809 0002136  97.0236 263.1203 14.34219252430359
IRIDIUM 148             
1 43255U 18030G   26169.74647539  .00000005  00000+0 -52169-5 0  9993
2 43255  86.3957 289.8084 0002159  96.5837 263.5605 14.34217477430399
IRIDIUM 142             
1 43256U 18030H   26169.85429942  .00000005  00000+0 -51980-5 0  9992
2 43256  86.3954 289.6521 0002037  99.4347 260.7079 14.34217281430379
IRIDIUM 150             
1 43257U 18030J   26169.26443779  .00000049  00000+0  10474-4 0  9991
2 43257  86.3960 290.0151 0002154  93.8168 266.3274 14.34217786430314
IRIDIUM 143             
1 43258U 18030K   26169.73379010  .00000052  00000+0  11473-4 0  9994
2 43258  86.3964 289.9114 0002107  96.7508 263.3928 14.34217493430311
IRIDIUM 161             
1 43478U 18047C   26169.90226702  .00000280  00000+0  77208-4 0  9995
2 43478  86.4482  87.7541 0002572  83.9137 276.2357 14.43279305425381
IRIDIUM 152             
1 43479U 18047D   26169.77627714  .00000310  00000+0  10362-3 0  9990
2 43479  86.3957  87.6680 0002329  82.9098 277.2362 14.34218056422713
IRIDIUM 147             
1 43480U 18047E   26169.92215645  .00000032  00000+0  43315-5 0  9992
2 43480  86.3959  87.6122 0002163  86.3473 273.7971 14.34217556422732
IRIDIUM 110             
1 43481U 18047F   26169.78896255  .00000163  00000+0  50970-4 0  9998
2 43481  86.3960  87.7598 0002559  81.5366 278.6120 14.34217970422707
IRIDIUM 162             
1 43482U 18047G   26169.75730873  .00000272  00000+0  74914-4 0  9994
2 43482  86.4481  87.7059 0002260  82.4537 277.6921 14.43282472425359
IRIDIUM 160             
1 43569U 18061A   26169.94410296 -.00000013  00000+0 -11751-4 0  9996
2 43569  86.3959  56.0627 0002165  85.6333 274.5111 14.34217416413627
IRIDIUM 166             
1 43570U 18061B   26169.96947309  .00000005  00000+0 -52648-5 0  9991
2 43570  86.3958  56.0026 0001997  86.5739 273.5685 14.34217512413658
IRIDIUM 158             
1 43571U 18061C   26169.93775996  .00000057  00000+0  13125-4 0  9992
2 43571  86.3958  56.0258 0002085  82.3573 277.7860 14.34217509413618
IRIDIUM 165             
1 43572U 18061D   26169.96313051  .00000047  00000+0  96015-5 0  9995
2 43572  86.3961  56.0618 0002071  87.1501 272.9932 14.34217378413646
IRIDIUM 155             
1 43573U 18061E   26169.92507470  .00000043  00000+0  82647-5 0  9994
2 43573  86.3958  55.9466 0002107  83.1857 276.9579 14.34217838413600
