OBJECT_NAME,OBJECT_ID,EPOCH,MEAN_MOTION,ECCENTRICITY,INCLINATION,RA_OF_ASC_NODE,ARG_OF_PERICENTER,MEAN_ANOMALY,EPHEMERIS_TYPE,CLASSIFICATION_TYPE,NORAD_CAT_ID,ELEMENT_SET_NO,REV_AT_EPOCH,BSTAR,MEAN_MOTION_DOT,MEAN_MOTION_DDOT
IRIDIUM 135,2017-083A,2026-06-18T23:10:23.244384,14.34217203,.00020732,86.3962,321.2718,91.8384,268.3049,0,U,43070,999,44440,-.13136104E-4,-.17E-6,0
IRIDIUM 138,2017-083B,2026-06-18T22:06:27.141408,14.34217862,.00023083,86.3980,320.9859,86.9843,273.1617,0,U,43071,999,44438,.22453135E-4,.83E-6,0
IRIDIUM 116,2017-083C,2026-06-18T19:40:19.140672,14.34217458,.00018977,86.3960,321.3187,100.0470,260.0941,0,U,43072,999,44440,-.10517469E-4,-.1E-6,0
IRIDIUM 130,2017-083D,2026-06-18T22:15:34.774848,14.34219446,.00019444,86.3974,321.5489,93.3023,266.8395,0,U,43073,999,44436,.50560654E-4,.161E-5,0
IRIDIUM 151,2017-083E,2026-06-18T21:39:03.229344,14.34217304,.00020541,86.3962,321.3421,93.4738,266.6693,0,U,43074,999,44438,-.9041167E-5,-.6E-7,0
IRIDIUM 134,2017-083F,2026-06-18T22:33:51.221952,14.34217103,.00020086,86.3964,321.3342,92.3530,267.7896,0,U,43075,999,44435,-.18361249E-4,-.32E-6,0
IRIDIUM 137,2017-083G,2026-06-18T21:11:39.172992,14.34217535,.00022105,86.3966,321.4510,104.2507,255.8935,0,U,43076,999,44441,-.6779877E-5,.1E-7,0
IRIDIUM 141,2017-083H,2026-06-18T09:19:15.142080,14.34217760,.0002229,86.3964,321.4880,90.9844,269.1607,0,U,43077,999,44434,.52348E-6,.21E-6,0
IRIDIUM 153,2017-083J,2026-06-18T18:13:11.449920,14.34217690,.00022341,86.3962,289.8134,89.7662,270.3790,0,U,43078,999,44550,.6402158E-5,.38E-6,0
IRIDIUM 131,2017-083K,2026-06-18T22:24:43.090848,14.34217448,.00022107,86.3971,321.4461,92.0291,268.1158,0,U,43079,999,44435,.23799088E-4,.86E-6,0
IRIDIUM 144,2018-030A,2026-06-18T18:22:19.412544,14.34217439,.00021165,86.3961,289.7397,97.4966,262.6470,0,U,43249,999,43036,.51201202E-4,.163E-5,0
IRIDIUM 149,2018-030B,2026-06-18T18:31:27.458976,14.34217778,.00022666,86.3959,289.7042,93.7824,266.3631,0,U,43250,999,43038,.16264323E-4,.65E-6,0
IRIDIUM 157,2018-030C,2026-06-18T18:58:51.470400,14.34217332,.00020988,86.3957,289.7497,94.4569,265.6867,0,U,43251,999,43036,-.8896974E-5,-.5E-7,0
IRIDIUM 140,2018-030D,2026-06-18T17:45:47.470464,14.34217499,.00021409,86.3959,289.7832,94.0293,266.1148,0,U,43252,999,43041,.3876049E-5,.31E-6,0
IRIDIUM 145,2018-030E,2026-06-18T17:27:31.446720,14.34217457,.00020324,86.3960,289.7607,101.7442,258.3982,0,U,43253,999,43034,.5074287E-5,.34E-6,0
IRIDIUM 146,2018-030F,2026-06-18T17:00:07.131168,14.34219252,.00021368,86.3960,289.7809,97.0236,263.1203,0,U,43254,999,43035,.48463356E-4,.156E-5,0
IRIDIUM 148,2018-030G,2026-06-18T17:54:55.473696,14.34217477,.00021594,86.3957,289.8084,96.5837,263.5605,0,U,43255,999,43039,-.5216864E-5,.5E-7,0
IRIDIUM 142,2018-030H,2026-06-18T20:30:11.469888,14.34217281,.00020374,86.3954,289.6521,99.4347,260.7079,0,U,43256,999,43037,-.5197954E-5,.5E-7,0
IRIDIUM 150,2018-030J,2026-06-18T06:20:47.425056,14.34217786,.0002154,86.3960,290.0151,93.8168,266.3274,0,U,43257,999,43031,.10474E-4,.49E-6,0
IRIDIUM 143,2018-030K,2026-06-18T17:36:39.464640,14.34217493,.00021072,86.3964,289.9114,96.7508,263.3928,0,U,43258,999,43031,.11472956E-4,.52E-6,0
IRIDIUM 161,2018-047C,2026-06-18T21:39:15.870528,14.43279305,.00025721,86.4482,87.7541,83.9137,276.2357,0,U,43478,999,42538,.77208118E-4,.28E-5,0
IRIDIUM 152,2018-047D,2026-06-18T18:37:50.344896,14.34218056,.0002329,86.3957,87.6680,82.9098,277.2362,0,U,43479,999,42271,.10361776E-3,.31E-5,0
IRIDIUM 147,2018-047E,2026-06-18T22:07:54.317280,14.34217556,.0002163,86.3959,87.6122,86.3473,273.7971,0,U,43480,999,42273,.4331474E-5,.32E-6,0
IRIDIUM 110,2018-047F,2026-06-18T18:56:06.364320,14.34217970,.00025593,86.3960,87.7598,81.5366,278.6120,0,U,43481,999,42270,.50970155E-4,.163E-5,0
IRIDIUM 162,2018-047G,2026-06-18T18:10:31.474272,14.43282472,.00022603,86.4481,87.7059,82.4537,277.6921,0,U,43482,999,42535,.74913909E-4,.272E-5,0
IRIDIUM 160,2018-061A,2026-06-18T22:39:30.495744,14.34217416,.00021654,86.3959,56.0627,85.6333,274.5111,0,U,43569,999,41362,-.1175143E-4,-.13E-6,0
IRIDIUM 166,2018-061B,2026-06-18T23:16:02.474976,14.34217512,.00019973,86.3958,56.0026,86.5739,273.5685,0,U,43570,999,41365,-.5264795E-5,.5E-7,0
IRIDIUM 158,2018-061C,2026-06-18T22:30:22.460544,14.34217509,.00020856,86.3958,56.0258,82.3573,277.7860,0,U,43571,999,41361,.13125261E-4,.57E-6,0
IRIDIUM 165,2018-061D,2026-06-18T23:06:54.476064,14.34217378,.00020718,86.3961,56.0618,87.1501,272.9932,0,U,43572,999,41364,.9601508E-5,.47E-6,0
IRIDIUM 155,2018-061E,2026-06-18T22:12:06.454080,14.34217838,.00021077,86.3958,55.9466,83.1857,276.9579,0,U,43573,999,41360,.8264655E-5,.43E-6,0
